[{"OBJECT_NAME":"ONEWEB-0086","OBJECT_ID":"2020-020AJ","EPOCH":"2026-03-09T21:21:09.313632","MEAN_MOTION":13.11417696,"ECCENTRICITY":0.00020154,"INCLINATION":87.8869,"RA_OF_ASC_NODE":40.797,"ARG_OF_PERICENTER":104.2526,"MEAN_ANOMALY":255.8826,"EPHEMERIS_TYPE":0,"CLASSIFICATION_TYPE":"U","NORAD_CAT_ID":45456,"ELEMENT_SET_NO":999,"REV_AT_EPOCH":28959,"BSTAR":0.00021690431,"MEAN_MOTION_DOT":9.0e-7,"MEAN_MOTION_DDOT":0},{"OBJECT_NAME":"COSMOS 1691 DEB","OBJECT_ID":"1985-094L","EPOCH":"2026-03-07T22:09:28.514880","MEAN_MOTION":13.19792324,"ECCENTRICITY":0.00487005,"INCLINATION":82.6355,"RA_OF_ASC_NODE":224.5327,"ARG_OF_PERICENTER":346.5093,"MEAN_ANOMALY":138.7403,"EPHEMERIS_TYPE":0,"CLASSIFICATION_TYPE":"U","NORAD_CAT_ID":16267,"ELEMENT_SET_NO":999,"REV_AT_EPOCH":53103,"BSTAR":0.0093500911,"MEAN_MOTION_DOT":3.784e-5,"MEAN_MOTION_DDOT":0}]
